GPS BIIR-5  (PRN 22)    
1 26407U 00040A   26150.58242625  .00000046  00000+0  00000+0 0  9999
2 26407  54.8538 215.8617 0121278 302.3883 230.2243  2.00557636189594
GPS BIIR-8  (PRN 16)    
1 27663U 03005A   26150.17055096  .00000045  00000+0  00000+0 0  9996
2 27663  54.8850 215.6848 0147924  53.0309 317.9648  2.00561627170956
GPS BIIR-11 (PRN 19)    
1 28190U 04009A   26150.43123292 -.00000059  00000+0  00000+0 0  9996
2 28190  54.8450 276.4045 0115349 172.3136 180.4501  2.00555422162588
GPS BIIR-13 (PRN 02)    
1 28474U 04045A   26150.35212506 -.00000093  00000+0  00000+0 0  9997
2 28474  55.1472 325.6141 0169819 315.9574  44.6584  2.00555253158070
GPS BIIRM-1 (PRN 17)    
1 28874U 05038A   26150.41242926 -.00000056  00000+0  00000+0 0  9999
2 28874  54.8931 273.8947 0127762 296.0439  71.0693  2.00567025151481
GPS BIIRM-2 (PRN 31)    
1 29486U 06042A   26150.13843096  .00000068  00000+0  00000+0 0  9991
2 29486  54.7083 152.0554 0106253  54.0213  13.4284  2.00570995144033
GPS BIIRM-3 (PRN 12)    
1 29601U 06052A   26149.97048746  .00000046  00000+0  00000+0 0  9996
2 29601  54.9369 214.7284 0085424  90.6730 270.3888  2.00557280143049
GPS BIIRM-4 (PRN 15)    
1 32260U 07047A   26150.77386176 -.00000055  00000+0  00000+0 0  9999
2 32260  54.0827  80.7833 0166076  87.0458 274.8256  2.00556201136463
GPS BIIRM-5 (PRN 29)    
1 32384U 07062A   26150.83787206 -.00000053  00000+0  00000+0 0  9997
2 32384  55.0461 274.8500 0035399 164.5016   8.8200  2.00559181135166
GPS BIIRM-6 (PRN 07)    
1 32711U 08012A   26150.18817987  .00000066  00000+0  00000+0 0  9998
2 32711  54.4947 150.6437 0210849 247.6101 110.1581  2.00572033133398
GPS BIIRM-8 (PRN 05)    
1 35752U 09043A   26150.68608059 -.00000091  00000+0  00000+0 0  9993
2 35752  56.1995  28.1390 0053611  82.4813 288.1185  2.00555368123018
GPS BIIF-1  (PRN 25)    
1 36585U 10022A   26149.57464714  .00000053  00000+0  00000+0 0  9998
2 36585  54.2718 209.3120 0126332  66.1134 340.0304  2.00561585117220
GPS BIIF-3  (PRN 24)    
1 38833U 12053A   26150.86639939  .00000051  00000+0  00000+0 0  9997
2 38833  53.5827 144.3088 0179371  65.5174 296.3427  2.00567269 99098
GPS BIIF-4  (PRN 27)    
1 39166U 13023A   26149.73571013 -.00000057  00000+0  00000+0 0  9994
2 39166  54.5189 269.7252 0141687  50.9392 310.3030  2.00563701 95511
GPS BIIF-5  (PRN 30)    
1 39533U 14008A   26150.23574577  .00000063  00000+0  00000+0 0  9997
2 39533  53.6516 150.0518 0084195 230.9621 128.3004  2.00558720 89320
GPS BIIF-6  (PRN 06)    
1 39741U 14026A   26150.51114865 -.00000091  00000+0  00000+0 0  9991
2 39741  56.5068 332.2054 0038353 326.8623  32.9032  2.00562467 88183
GPS BIIF-7  (PRN 09)    
1 40105U 14045A   26150.10405345 -.00000044  00000+0  00000+0 0  9997
2 40105  55.3420  89.1851 0032590 118.4988 241.7944  2.00557318 85714
GPS BIIF-8  (PRN 03)    
1 40294U 14068A   26149.97545892 -.00000092  00000+0  00000+0 0  9999
2 40294  56.9754  31.6563 0066561  69.9289 290.8328  2.00575248 84847
GPS BIIF-9  (PRN 26)    
1 40534U 15013A   26150.11273661  .00000059  00000+0  00000+0 0  9999
2 40534  53.1693 204.9252 0109188  40.0530 320.8373  2.00552598 81469
GPS BIIF-10 (PRN 08)    
1 40730U 15033A   26150.27159562 -.00000050  00000+0  00000+0 0  9991
2 40730  53.9967 267.8251 0115038  30.1505 330.5022  2.00557227 79638
GPS BIIF-11 (PRN 10)    
1 41019U 15062A   26149.82982951 -.00000093  00000+0  00000+0 0  9996
2 41019  56.9473  31.5183 0111503 231.2430 127.8002  2.00567141 77468
GPS BIIF-12 (PRN 32)    
1 41328U 16007A   26150.41813736 -.00000041  00000+0  00000+0 0  9993
2 41328  55.5137  90.1638 0096280 247.3581 111.5878  2.00552721 75487
GPS BIII-1  (PRN 04)    
1 43873U 18109A   26150.30523066 -.00000037  00000+0  00000+0 0  9992
2 43873  55.6719  92.8919 0038157 198.4011 333.8307  2.00561041 54719
GPS BIII-2  (PRN 18)    
1 44506U 19056A   26150.45311657 -.00000092  00000+0  00000+0 0  9996
2 44506  55.6421 331.8469 0061060 197.3272 344.8655  2.00569866 49710
GPS BIII-3  (PRN 23)    
1 45854U 20041A   26150.02685404 -.00000093  00000+0  00000+0 0  9997
2 45854  56.6583  29.6478 0063227 204.7009 328.8557  2.00559384 43673
GPS BIII-4  (PRN 14)    
1 46826U 20078A   26150.43676340  .00000051  00000+0  00000+0 0  9994
2 46826  53.9818 211.4986 0072703 206.7371 238.5468  2.00565060 41159
GPS BIII-5  (PRN 11)    
1 48859U 21054A   26137.34480044 -.00000068  00000+0  00000+0 0  9995
2 48859  55.1880 333.6992 0024563 229.1334 308.8673  2.00570737 36131
GPS BIII-6  (PRN 28)    
1 55268U 23009A   26150.75146108  .00000061  00000+0  00000+0 0  9991
2 55268  55.1207 149.2040 0006131 315.6630 220.9992  2.00572831 24897
GPS BIII-7  (PRN 01)    
1 62339U 24242A   26150.14491160 -.00000095  00000+0  00000+0 0  9990
2 62339  54.8570 334.9124 0017364   4.2760 176.8231  2.00571543 10893
GPS BIII-8  (PRN 21)    
1 64202U 25116A   26150.39787344 -.00000093  00000+0  00000+0 0  9999
2 64202  55.2226  31.8461 0008541 336.7269 209.5516  2.00577472  7510
GPS BIII-9  (PRN 20)    
1 67588U 26017A   26150.24909249 -.00000043  00000+0  00000+0 0  9999
2 67588  55.0776  89.4749 0022608 256.9258 102.7871  2.00571628431254
GPS BIII-10 (PRN 13)    
1 68791U 26087A   26150.46326851  .00000057  00000+0  00000+0 0  9993
2 68791  54.9644 208.4886 0020484 107.4944 252.5496  2.00569043   471
